NORAD_CAT_ID,OBJECT_NAME,OBJECT_TYPE,EPOCH,MEAN_MOTION,ECCENTRICITY,INCLINATION,RA_OF_ASC_NODE,ARG_OF_PERICENTER,MEAN_ANOMALY,BSTAR,MEAN_MOTION_DOT,MEAN_MOTION_DDOT,TLE_LINE0,TLE_LINE1,TLE_LINE2,SEMIMAJOR_AXIS,PERIOD,APOGEE,PERIGEE,DECAYED
52383.0,STARLINK-3811,PAYLOAD,2023-10-06 17:16:25,15.08823828,6.07e-05,53.2171,191.9338,104.3046,255.8013,-0.00021687,-3.736e-05,0.0,0 STARLINK-3811,1 52383U 22045BE  23279.71973721 -.00003736  00000-0 -21687-3 0  9992,2 52383  53.2171 191.9338 0000607 104.3046 255.8013 15.08823828 82466,6917.93,95.439,540.215,539.375,0.0
52383.0,STARLINK-3811,PAYLOAD,2023-10-06 22:02:34,15.0883769,0.0001616,53.2167,191.0434,111.2271,248.8894,0.00021706,3.168e-05,0.0,0 STARLINK-3811,1 52383U 22045BE  23279.91845609  .00003168  00000-0  21706-3 0  9996,2 52383  53.2167 191.0434 0001616 111.2271 248.8894 15.08837690 82491,6917.887,95.438,540.87,538.635,0.0
52383.0,STARLINK-3811,PAYLOAD,2023-10-07 01:13:21,15.08845174,0.000103,53.216,190.4489,94.9263,265.1847,0.0014528,0.00022912,0.0,0 STARLINK-3811,1 52383U 22045BE  23280.05093758  .00022912  00000-0  14528-2 0  9994,2 52383  53.2160 190.4489 0001030  94.9263 265.1847 15.08845174 82514,6917.865,95.437,540.442,539.017,0.0
52383.0,STARLINK-3811,PAYLOAD,2023-10-07 10:45:39,15.08846595,0.0001079,53.2159,188.6665,101.5237,258.5876,0.00064103,9.931e-05,0.0,0 STARLINK-3811,1 52383U 22045BE  23280.44837689  .00009931  00000-0  64103-3 0  9997,2 52383  53.2159 188.6665 0001079 101.5237 258.5876 15.08846595 82578,6917.86,95.437,540.472,538.979,0.0
52383.0,STARLINK-3811,PAYLOAD,2023-10-07 18:42:35,15.08832069,0.0001126,53.2159,187.1778,86.3429,273.7692,0.00037557,5.693e-05,0.0,0 STARLINK-3811,1 52383U 22045BE  23280.77958069  .00005693  00000-0  37557-3 0  9993,2 52383  53.2159 187.1778 0001126  86.3429 273.7692 15.08832069 82625,6917.905,95.438,540.549,538.991,0.0
52383.0,STARLINK-3811,PAYLOAD,2023-10-07 21:53:21,15.08839723,0.0001277,53.2162,186.5836,99.3479,260.7658,0.00070729,0.00010986,0.0,0 STARLINK-3811,1 52383U 22045BE  23280.91205999  .00010986  00000-0  70729-3 0  9995,2 52383  53.2162 186.5836 0001277  99.3479 260.7658 15.08839723 82647,6917.881,95.438,540.63,538.863,0.0
52383.0,STARLINK-3811,PAYLOAD,2023-10-08 01:04:08,15.08850362,0.0001078,53.2161,185.9901,98.9992,261.1122,0.0017514,0.00027703,0.0,0 STARLINK-3811,1 52383U 22045BE  23281.04453875  .00027703  00000-0  17514-2 0  9995,2 52383  53.2161 185.9901 0001078  98.9992 261.1122 15.08850362 82661,6917.849,95.437,540.459,538.968,0.0
52383.0,STARLINK-3811,PAYLOAD,2023-10-08 04:14:54,15.0886319,0.0001072,53.216,185.3951,94.914,265.1975,0.0021995,0.00034913,0.0,0 STARLINK-3811,1 52383U 22045BE  23281.17701671  .00034913  00000-0  21995-2 0  9998,2 52383  53.2160 185.3951 0001072  94.9140 265.1975 15.08863190 82689,6917.81,95.436,540.416,538.933,0.0
52383.0,STARLINK-3811,PAYLOAD,2023-10-09 02:30:17,15.08867214,0.0001304,53.2156,181.232,91.5251,268.589,0.0012839,0.0002022,0.0,0 STARLINK-3811,1 52383U 22045BE  23282.10437491  .00020220  00000-0  12839-2 0  9991,2 52383  53.2156 181.2320 0001304  91.5251 268.5890 15.08867214 82823,6917.797,95.436,540.564,538.76,0.0
52383.0,STARLINK-3811,PAYLOAD,2023-10-09 10:27:14,15.08842206,0.0002311,53.2152,179.7458,73.7554,286.3693,0.00084741,0.00013225,0.0,0 STARLINK-3811,1 52383U 22045BE  23282.43558012  .00013225  00000-0  84741-3 0  9999,2 52383  53.2152 179.7458 0002311  73.7554 286.3693 15.08842206 82878,6917.874,95.437,541.337,538.14,0.0
52383.0,STARLINK-3811,PAYLOAD,2023-10-09 21:34:56,15.08837506,0.0001414,53.2162,177.6637,76.9642,283.1508,0.00061401,9.497e-05,0.0,0 STARLINK-3811,1 52383U 22045BE  23282.89925949  .00009497  00000-0  61401-3 0  9990,2 52383  53.2162 177.6637 0001414  76.9642 283.1508 15.08837506 82946,6917.888,95.438,540.731,538.775,0.0
52383.0,STARLINK-3811,PAYLOAD,2023-10-09 23:10:19,15.08842188,0.0001359,53.2157,177.365,74.9299,285.1844,0.00087859,0.00013723,0.0,0 STARLINK-3811,1 52383U 22045BE  23282.96549934  .00013723  00000-0  87859-3 0  9996,2 52383  53.2157 177.3650 0001359  74.9299 285.1844 15.08842188 82954,6917.874,95.437,540.679,538.799,0.0
52383.0,STARLINK-3811,PAYLOAD,2023-10-10 10:18:01,15.08844457,0.0001616,53.2166,175.2859,73.1314,286.9855,0.0010031,0.00015714,0.0,0 STARLINK-3811,1 52383U 22045BE  23283.42918175  .00015714  00000-0  10031-2 0  9994,2 52383  53.2166 175.2859 0001616  73.1314 286.9855 15.08844457 83028,6917.867,95.437,540.85,538.614,0.0
52383.0,STARLINK-3811,PAYLOAD,2023-10-10 16:39:33,15.08845189,0.0001685,53.2156,174.0991,71.5021,288.6154,0.00072995,0.0001135,0.0,0 STARLINK-3811,1 52383U 22045BE  23283.69414245  .00011350  00000-0  72995-3 0  9992,2 52383  53.2156 174.0991 0001685  71.5021 288.6154 15.08845189 83062,6917.865,95.437,540.895,538.564,0.0
52383.0,STARLINK-3811,PAYLOAD,2023-10-10 21:25:43,15.08838574,0.0001788,53.2167,173.2063,72.4529,287.6658,0.00033492,5.046e-05,0.0,0 STARLINK-3811,1 52383U 22045BE  23283.89286432  .00005046  00000-0  33492-3 0  9993,2 52383  53.2167 173.2063 0001788  72.4529 287.6658 15.08838574 83093,6917.885,95.438,540.987,538.513,0.0
52383.0,STARLINK-3811,PAYLOAD,2023-10-11 10:08:47,15.08844343,3.24e-05,53.2163,170.8233,88.3041,271.7988,0.00021431,3.125e-05,0.0,0 STARLINK-3811,1 52383U 22045BE  23284.42277746  .00003125  00000-0  21431-3 0  9997,2 52383  53.2163 170.8233 0000324  88.3041 271.7988 15.08844343 83171,6917.867,95.437,539.956,539.508,0.0
52383.0,STARLINK-3811,PAYLOAD,2023-10-12 02:02:39,15.0884539,0.0001628,53.2157,167.8492,94.4489,265.6689,0.00039959,6.078e-05,0.0,0 STARLINK-3811,1 52383U 22045BE  23285.08518406  .00006078  00000-0  39959-3 0  9995,2 52383  53.2157 167.8492 0001628  94.4489 265.6689 15.08845390 83273,6917.864,95.437,540.855,538.603,0.0
52383.0,STARLINK-3811,PAYLOAD,2023-10-12 19:31:54,15.08845981,0.0001472,53.216,164.5786,95.8343,264.2817,0.00034831,5.261e-05,0.0,0 STARLINK-3811,1 52383U 22045BE  23285.81382525  .00005261  00000-0  34831-3 0  9994,2 52383  53.2160 164.5786 0001472  95.8343 264.2817 15.08845981 83384,6917.862,95.437,540.745,538.709,0.0
52383.0,STARLINK-3811,PAYLOAD,2023-10-12 22:42:40,15.08848043,0.0001541,53.2161,163.9827,94.1079,266.0089,0.0005595,8.63e-05,0.0,0 STARLINK-3811,1 52383U 22045BE  23285.94630544  .00008630  00000-0  55950-3 0  9993,2 52383  53.2161 163.9827 0001541  94.1079 266.0089 15.08848043 83405,6917.856,95.437,540.787,538.655,0.0
52383.0,STARLINK-3811,PAYLOAD,2023-10-13 20:58:04,15.08850349,0.0001556,53.2157,159.8218,94.7641,265.3529,0.00037173,5.635e-05,0.0,0 STARLINK-3811,1 52383U 22045BE  23286.87366338  .00005635  00000-0  37173-3 0  9992,2 52383  53.2157 159.8218 0001556  94.7641 265.3529 15.08850349 83543,6917.849,95.437,540.79,538.637,0.0
52383.0,STARLINK-3811,PAYLOAD,2023-10-13 22:33:27,15.08858891,0.0001446,53.2159,159.5234,94.9811,265.1346,0.00068437,0.00010626,0.0,0 STARLINK-3811,1 52383U 22045BE  23286.93990124  .00010626  00000-0  68437-3 0  9998,2 52383  53.2159 159.5234 0001446  94.9811 265.1346 15.08858891 83555,6917.823,95.436,540.688,538.687,0.0
52383.0,STARLINK-3811,PAYLOAD,2023-10-14 01:44:13,15.08864572,0.0001461,53.2163,158.9277,96.1374,263.9785,0.00081079,0.00012648,0.0,0 STARLINK-3811,1 52383U 22045BE  23287.07237892  .00012648  00000-0  81079-3 0  9993,2 52383  53.2163 158.9277 0001461  96.1374 263.9785 15.08864572 83573,6917.805,95.436,540.681,538.66,0.0
52383.0,STARLINK-3811,PAYLOAD,2023-10-14 08:05:46,15.08856441,0.0001287,53.2163,157.7359,89.4706,270.6434,0.00046752,7.164e-05,0.0,0 STARLINK-3811,1 52383U 22045BE  23287.33734078  .00007164  00000-0  46752-3 0  9996,2 52383  53.2163 157.7359 0001287  89.4706 270.6434 15.08856441 83618,6917.83,95.437,540.585,538.805,0.0
52383.0,STARLINK-3811,PAYLOAD,2023-10-14 20:48:51,15.08836431,0.0001451,53.2153,155.362,88.3839,271.7319,-4.8722e-05,-1.063e-05,0.0,0 STARLINK-3811,1 52383U 22045BE  23287.86726559 -.00001063  00000-0 -48722-4 0  9993,2 52383  53.2153 155.3620 0001451  88.3839 271.7319 15.08836431 83699,6917.891,95.438,540.76,538.753,0.0
52383.0,STARLINK-3811,PAYLOAD,2023-10-14 22:24:14,15.08838069,0.0001407,53.2151,155.065,89.6485,270.4669,-1.0919e-05,-4.62e-06,0.0,0 STARLINK-3811,1 52383U 22045BE  23287.93350491 -.00000462  00000-0 -10919-4 0  9998,2 52383  53.2151 155.0650 0001407  89.6485 270.4669 15.08838069 83704,6917.886,95.438,540.725,538.778,0.0
52383.0,STARLINK-3811,PAYLOAD,2023-10-15 14:18:06,15.088371,0.000133,53.2152,152.0895,86.6729,273.4415,2.3347e-05,8.4e-07,0.0,0 STARLINK-3811,1 52383U 22045BE  23288.59590733  .00000084  00000-0  23347-4 0  9993,2 52383  53.2152 152.0895 0001330  86.6729 273.4415 15.08837100 83804,6917.889,95.438,540.674,538.834,0.0
52383.0,STARLINK-3811,PAYLOAD,2023-10-15 22:15:02,15.08843053,0.0001306,53.215,150.6028,88.631,271.4832,0.00044158,6.747e-05,0.0,0 STARLINK-3811,1 52383U 22045BE  23288.92710736  .00006747  00000-0  44158-3 0  9991,2 52383  53.2150 150.6028 0001306  88.6310 271.4832 15.08843053 83855,6917.871,95.437,540.64,538.833,0.0
52383.0,STARLINK-3811,PAYLOAD,2023-10-16 07:47:20,15.08844396,0.0001323,53.2147,148.8186,85.536,274.5784,0.00042243,6.442e-05,0.0,0 STARLINK-3811,1 52383U 22045BE  23289.32454736  .00006442  00000-0  42243-3 0  9996,2 52383  53.2147 148.8186 0001323  85.5360 274.5784 15.08844396 83913,6917.867,95.437,540.647,538.817,0.0
52383.0,STARLINK-3811,PAYLOAD,2023-10-17 13:59:40,15.0884493,0.0001849,53.215,143.1679,82.8697,277.2505,0.00021866,3.194e-05,0.0,0 STARLINK-3811,1 52383U 22045BE  23290.58310942  .00003194  00000-0  21866-3 0  9995,2 52383  53.2150 143.1679 0001849  82.8697 277.2505 15.08844930 84105,6917.865,95.437,541.009,538.451,0.0
52383.0,STARLINK-3811,PAYLOAD,2023-10-18 20:12:00,15.08843773,0.0001346,53.2145,137.5181,84.5851,275.5294,0.00019499,2.817e-05,0.0,0 STARLINK-3811,1 52383U 22045BE  23291.84166933  .00002817  00000-0  19499-3 0  9994,2 52383  53.2145 137.5181 0001346  84.5851 275.5294 15.08843773 84297,6917.869,95.437,540.665,538.803,0.0
